{
"type": "FeatureCollection",
"name": "disturbance_index",
"crs": { "type": "name", "properties": { "name": "urn:ogc:def:crs:EPSG::32635" } },
"features": [
{ "type": "Feature", "properties": { "id": 2, "left": 783630.0, "top": 456950.0, "right": 785939.4010767584, "bottom": 454950.0, "row_index": 1, "col_index": 0, "disturbance_count": 0, "fire_count": 4, "built_sum": 0.0, "disturbance_index": 0.054742788240726703 }, "geometry": { "type": "MultiPolygon", "coordinates": [ [ [ [ 785630.0, 456485.898384862113744 ], [ 785939.401076758396812, 455950.0 ], [ 785630.0, 455414.101615137886256 ], [ 785630.0, 456485.898384862113744 ] ] ] ] } },
{ "type": "Feature", "properties": { "id": 3, "left": 783630.0, "top": 454950.0, "right": 785939.4010767584, "bottom": 452950.0, "row_index": 2, "col_index": 0, "disturbance_count": 0, "fire_count": 0, "built_sum": 0.0, "disturbance_index": 0.0 }, "geometry": { "type": "MultiPolygon", "coordinates": [ [ [ [ 785630.0, 454485.898384862113744 ], [ 785939.401076758396812, 453950.0 ], [ 785630.0, 453414.101615137886256 ], [ 785630.0, 454485.898384862113744 ] ] ] ] } },
{ "type": "Feature", "properties": { "id": 4, "left": 783630.0, "top": 452950.0, "right": 785939.4010767584, "bottom": 450950.0, "row_index": 3, "col_index": 0, "disturbance_count": 0, "fire_count": 4, "built_sum": 0.0, "disturbance_index": 0.054742788240726703 }, "geometry": { "type": "MultiPolygon", "coordinates": [ [ [ [ 785630.0, 452485.898384862113744 ], [ 785939.401076758396812, 451950.0 ], [ 785630.0, 451414.101615137886256 ], [ 785630.0, 452485.898384862113744 ] ] ] ] } },
{ "type": "Feature", "properties": { "id": 5, "left": 783630.0, "top": 450950.0, "right": 785939.4010767584, "bottom": 448950.0, "row_index": 4, "col_index": 0, "disturbance_count": 0, "fire_count": 7, "built_sum": 0.0, "disturbance_index": 0.070729306856570376 }, "geometry": { "type": "MultiPolygon", "coordinates": [ [ [ [ 785630.0, 449660.0 ], [ 785630.0, 450485.898384862113744 ], [ 785939.401076758396812, 449950.0 ], [ 785771.969498693477362, 449660.0 ], [ 785630.0, 449660.0 ] ] ] ] } },
{ "type": "Feature", "properties": { "id": 7, "left": 785362.05080756883, "top": 457950.0, "right": 787671.45188432722, "bottom": 455950.0, "row_index": 0, "col_index": 1, "disturbance_count": 0, "fire_count": 33, "built_sum": 0.0, "disturbance_index": 0.11994424014006487 }, "geometry": { "type": "MultiPolygon", "coordinates": [ [ [ [ 785630.0, 456950.0 ], [ 787671.451884327223524, 456950.0 ], [ 787094.101615137653425, 455950.0 ], [ 785939.401076758396812, 455950.0 ], [ 785630.0, 456485.898384862113744 ], [ 785630.0, 456950.0 ] ] ] ] } },
{ "type": "Feature", "properties": { "id": 8, "left": 785362.05080756883, "top": 455950.0, "right": 787671.45188432722, "bottom": 453950.0, "row_index": 1, "col_index": 1, "disturbance_count": 0, "fire_count": 6, "built_sum": 0.0, "disturbance_index": 0.066187422579171831 }, "geometry": { "type": "MultiPolygon", "coordinates": [ [ [ [ 785630.0, 455414.101615137886256 ], [ 785939.401076758396812, 455950.0 ], [ 787094.101615137653425, 455950.0 ], [ 787671.451884327223524, 454950.0 ], [ 787094.101615137653425, 453950.0 ], [ 785939.401076758396812, 453950.0 ], [ 785630.0, 454485.898384862113744 ], [ 785630.0, 455414.101615137886256 ] ] ] ] } },
{ "type": "Feature", "properties": { "id": 9, "left": 785362.05080756883, "top": 453950.0, "right": 787671.45188432722, "bottom": 451950.0, "row_index": 2, "col_index": 1, "disturbance_count": 0, "fire_count": 27, "built_sum": 0.0, "disturbance_index": 0.1133402938168854 }, "geometry": { "type": "MultiPolygon", "coordinates": [ [ [ [ 785630.0, 453414.101615137886256 ], [ 785939.401076758396812, 453950.0 ], [ 787094.101615137653425, 453950.0 ], [ 787671.451884327223524, 452950.0 ], [ 787094.101615137653425, 451950.0 ], [ 785939.401076758396812, 451950.0 ], [ 785630.0, 452485.898384862113744 ], [ 785630.0, 453414.101615137886256 ] ] ] ] } },
{ "type": "Feature", "properties": { "id": 10, "left": 785362.05080756883, "top": 451950.0, "right": 787671.45188432722, "bottom": 449950.0, "row_index": 3, "col_index": 1, "disturbance_count": 407, "fire_count": 120, "built_sum": 196.0, "disturbance_index": 0.96516270057699372 }, "geometry": { "type": "MultiPolygon", "coordinates": [ [ [ [ 785630.0, 451414.101615137886256 ], [ 785939.401076758396812, 451950.0 ], [ 787094.101615137653425, 451950.0 ], [ 787671.451884327223524, 450950.0 ], [ 787094.101615137653425, 449950.0 ], [ 785939.401076758396812, 449950.0 ], [ 785630.0, 450485.898384862113744 ], [ 785630.0, 451414.101615137886256 ] ] ] ] } },
{ "type": "Feature", "properties": { "id": 11, "left": 785362.05080756883, "top": 449950.0, "right": 787671.45188432722, "bottom": 447950.0, "row_index": 4, "col_index": 1, "disturbance_count": 0, "fire_count": 9, "built_sum": 0.0, "disturbance_index": 0.078319223859583495 }, "geometry": { "type": "MultiPolygon", "coordinates": [ [ [ [ 785771.969498693477362, 449660.0 ], [ 785939.401076758396812, 449950.0 ], [ 787094.101615137653425, 449950.0 ], [ 787261.533193202572875, 449660.0 ], [ 785771.969498693477362, 449660.0 ] ] ] ] } },
{ "type": "Feature", "properties": { "id": 14, "left": 787094.10161513777, "top": 456950.0, "right": 789403.50269189617, "bottom": 454950.0, "row_index": 1, "col_index": 2, "disturbance_count": 0, "fire_count": 40, "built_sum": 0.0, "disturbance_index": 0.12631197991155541 }, "geometry": { "type": "MultiPolygon", "coordinates": [ [ [ [ 787094.101615137769841, 455950.0 ], [ 787671.45188432733994, 456950.0 ], [ 788826.152422706596553, 456950.0 ], [ 789403.502691896166652, 455950.0 ], [ 788826.152422706596553, 454950.0 ], [ 787671.45188432733994, 454950.0 ], [ 787094.101615137769841, 455950.0 ] ] ] ] } },
{ "type": "Feature", "properties": { "id": 15, "left": 787094.10161513777, "top": 454950.0, "right": 789403.50269189617, "bottom": 452950.0, "row_index": 2, "col_index": 2, "disturbance_count": 0, "fire_count": 9, "built_sum": 0.0, "disturbance_index": 0.078319223859583495 }, "geometry": { "type": "MultiPolygon", "coordinates": [ [ [ [ 787094.101615137769841, 453950.0 ], [ 787671.45188432733994, 454950.0 ], [ 788826.152422706596553, 454950.0 ], [ 789403.502691896166652, 453950.0 ], [ 788826.152422706596553, 452950.0 ], [ 787671.45188432733994, 452950.0 ], [ 787094.101615137769841, 453950.0 ] ] ] ] } },
{ "type": "Feature", "properties": { "id": 16, "left": 787094.10161513777, "top": 452950.0, "right": 789403.50269189617, "bottom": 450950.0, "row_index": 3, "col_index": 2, "disturbance_count": 66, "fire_count": 66, "built_sum": 0.0, "disturbance_index": 0.37634812124671402 }, "geometry": { "type": "MultiPolygon", "coordinates": [ [ [ [ 787094.101615137769841, 451950.0 ], [ 787671.45188432733994, 452950.0 ], [ 788826.152422706596553, 452950.0 ], [ 789403.502691896166652, 451950.0 ], [ 788826.152422706596553, 450950.0 ], [ 787671.45188432733994, 450950.0 ], [ 787094.101615137769841, 451950.0 ] ] ] ] } },
{ "type": "Feature", "properties": { "id": 17, "left": 787094.10161513777, "top": 450950.0, "right": 789403.50269189617, "bottom": 448950.0, "row_index": 4, "col_index": 2, "disturbance_count": 0, "fire_count": 54, "built_sum": 0.0, "disturbance_index": 0.13630385507536649 }, "geometry": { "type": "MultiPolygon", "coordinates": [ [ [ [ 787261.53319320268929, 449660.0 ], [ 787094.101615137769841, 449950.0 ], [ 787671.45188432733994, 450950.0 ], [ 788826.152422706596553, 450950.0 ], [ 789403.502691896166652, 449950.0 ], [ 789236.071113831247203, 449660.0 ], [ 787261.53319320268929, 449660.0 ] ] ] ] } },
{ "type": "Feature", "properties": { "id": 19, "left": 788826.1524227066, "top": 457950.0, "right": 791135.55349946499, "bottom": 455950.0, "row_index": 0, "col_index": 3, "disturbance_count": 0, "fire_count": 15, "built_sum": 0.0, "disturbance_index": 0.094305742475427154 }, "geometry": { "type": "MultiPolygon", "coordinates": [ [ [ [ 791135.553499464993365, 456950.0 ], [ 790558.203230275423266, 455950.0 ], [ 789403.502691896166652, 455950.0 ], [ 788826.152422706596553, 456950.0 ], [ 791135.553499464993365, 456950.0 ] ] ] ] } },
{ "type": "Feature", "properties": { "id": 20, "left": 788826.1524227066, "top": 455950.0, "right": 791135.55349946499, "bottom": 453950.0, "row_index": 1, "col_index": 3, "disturbance_count": 62, "fire_count": 18, "built_sum": 0.0, "disturbance_index": 0.33006631220755833 }, "geometry": { "type": "MultiPolygon", "coordinates": [ [ [ [ 788826.152422706596553, 454950.0 ], [ 789403.502691896166652, 455950.0 ], [ 790558.203230275423266, 455950.0 ], [ 791135.553499464993365, 454950.0 ], [ 790558.203230275423266, 453950.0 ], [ 789403.502691896166652, 453950.0 ], [ 788826.152422706596553, 454950.0 ] ] ] ] } },
{ "type": "Feature", "properties": { "id": 21, "left": 788826.1524227066, "top": 453950.0, "right": 791135.55349946499, "bottom": 451950.0, "row_index": 2, "col_index": 3, "disturbance_count": 952, "fire_count": 47, "built_sum": 0.0, "disturbance_index": 0.50009456146356068 }, "geometry": { "type": "MultiPolygon", "coordinates": [ [ [ [ 788826.152422706596553, 452950.0 ], [ 789403.502691896166652, 453950.0 ], [ 790558.203230275423266, 453950.0 ], [ 791135.553499464993365, 452950.0 ], [ 790558.203230275423266, 451950.0 ], [ 789403.502691896166652, 451950.0 ], [ 788826.152422706596553, 452950.0 ] ] ] ] } },
{ "type": "Feature", "properties": { "id": 22, "left": 788826.1524227066, "top": 451950.0, "right": 791135.55349946499, "bottom": 449950.0, "row_index": 3, "col_index": 3, "disturbance_count": 128, "fire_count": 53, "built_sum": 0.0, "disturbance_index": 0.40536571182149234 }, "geometry": { "type": "MultiPolygon", "coordinates": [ [ [ [ 788826.152422706596553, 450950.0 ], [ 789403.502691896166652, 451950.0 ], [ 790558.203230275423266, 451950.0 ], [ 791135.553499464993365, 450950.0 ], [ 790558.203230275423266, 449950.0 ], [ 789403.502691896166652, 449950.0 ], [ 788826.152422706596553, 450950.0 ] ] ] ] } },
{ "type": "Feature", "properties": { "id": 23, "left": 788826.1524227066, "top": 449950.0, "right": 791135.55349946499, "bottom": 447950.0, "row_index": 4, "col_index": 3, "disturbance_count": 235, "fire_count": 6, "built_sum": 0.0, "disturbance_index": 0.36939229894560527 }, "geometry": { "type": "MultiPolygon", "coordinates": [ [ [ [ 789236.071113831247203, 449660.0 ], [ 789403.502691896166652, 449950.0 ], [ 790558.203230275423266, 449950.0 ], [ 790725.634808340342715, 449660.0 ], [ 789236.071113831247203, 449660.0 ] ] ] ] } },
{ "type": "Feature", "properties": { "id": 26, "left": 790558.20323027554, "top": 456950.0, "right": 792867.60430703394, "bottom": 454950.0, "row_index": 1, "col_index": 4, "disturbance_count": 0, "fire_count": 36, "built_sum": 0.0, "disturbance_index": 0.12282034188418776 }, "geometry": { "type": "MultiPolygon", "coordinates": [ [ [ [ 790558.203230275539681, 455950.0 ], [ 791135.55349946510978, 456950.0 ], [ 792290.254037844366394, 456950.0 ], [ 792867.604307033936493, 455950.0 ], [ 792290.254037844366394, 454950.0 ], [ 791135.55349946510978, 454950.0 ], [ 790558.203230275539681, 455950.0 ] ] ] ] } },
{ "type": "Feature", "properties": { "id": 27, "left": 790558.20323027554, "top": 454950.0, "right": 792867.60430703394, "bottom": 452950.0, "row_index": 2, "col_index": 4, "disturbance_count": 392, "fire_count": 56, "built_sum": 0.0, "disturbance_index": 0.46902387344174051 }, "geometry": { "type": "MultiPolygon", "coordinates": [ [ [ [ 790558.203230275539681, 453950.0 ], [ 791135.55349946510978, 454950.0 ], [ 792290.254037844366394, 454950.0 ], [ 792867.604307033936493, 453950.0 ], [ 792290.254037844366394, 452950.0 ], [ 791135.55349946510978, 452950.0 ], [ 790558.203230275539681, 453950.0 ] ] ] ] } },
{ "type": "Feature", "properties": { "id": 28, "left": 790558.20323027554, "top": 452950.0, "right": 792867.60430703394, "bottom": 450950.0, "row_index": 3, "col_index": 4, "disturbance_count": 339, "fire_count": 45, "built_sum": 0.0, "disturbance_index": 0.45369207061789779 }, "geometry": { "type": "MultiPolygon", "coordinates": [ [ [ [ 790558.203230275539681, 451950.0 ], [ 791135.55349946510978, 452950.0 ], [ 792290.254037844366394, 452950.0 ], [ 792867.604307033936493, 451950.0 ], [ 792290.254037844366394, 450950.0 ], [ 791135.55349946510978, 450950.0 ], [ 790558.203230275539681, 451950.0 ] ] ] ] } },
{ "type": "Feature", "properties": { "id": 29, "left": 790558.20323027554, "top": 450950.0, "right": 792867.60430703394, "bottom": 448950.0, "row_index": 4, "col_index": 4, "disturbance_count": 157, "fire_count": 24, "built_sum": 0.0, "disturbance_index": 0.3904245870253672 }, "geometry": { "type": "MultiPolygon", "coordinates": [ [ [ [ 790725.634808340459131, 449660.0 ], [ 790558.203230275539681, 449950.0 ], [ 791135.55349946510978, 450950.0 ], [ 792290.254037844366394, 450950.0 ], [ 792867.604307033936493, 449950.0 ], [ 792700.172728969017044, 449660.0 ], [ 790725.634808340459131, 449660.0 ] ] ] ] } },
{ "type": "Feature", "properties": { "id": 31, "left": 792290.25403784437, "top": 457950.0, "right": 794599.65511460276, "bottom": 455950.0, "row_index": 0, "col_index": 5, "disturbance_count": 0, "fire_count": 15, "built_sum": 0.0, "disturbance_index": 0.094305742475427154 }, "geometry": { "type": "MultiPolygon", "coordinates": [ [ [ [ 793350.0, 456950.0 ], [ 793350.0, 455950.0 ], [ 792867.604307033936493, 455950.0 ], [ 792290.254037844366394, 456950.0 ], [ 793350.0, 456950.0 ] ] ] ] } },
{ "type": "Feature", "properties": { "id": 32, "left": 792290.25403784437, "top": 455950.0, "right": 794599.65511460276, "bottom": 453950.0, "row_index": 1, "col_index": 5, "disturbance_count": 0, "fire_count": 26, "built_sum": 0.0, "disturbance_index": 0.11210329906966379 }, "geometry": { "type": "MultiPolygon", "coordinates": [ [ [ [ 793350.0, 453950.0 ], [ 792867.604307033936493, 453950.0 ], [ 792290.254037844366394, 454950.0 ], [ 792867.604307033936493, 455950.0 ], [ 793350.0, 455950.0 ], [ 793350.0, 453950.0 ] ] ] ] } },
{ "type": "Feature", "properties": { "id": 33, "left": 792290.25403784437, "top": 453950.0, "right": 794599.65511460276, "bottom": 451950.0, "row_index": 2, "col_index": 5, "disturbance_count": 0, "fire_count": 28, "built_sum": 0.0, "disturbance_index": 0.11453387616925505 }, "geometry": { "type": "MultiPolygon", "coordinates": [ [ [ [ 793350.0, 451950.0 ], [ 792867.604307033936493, 451950.0 ], [ 792290.254037844366394, 452950.0 ], [ 792867.604307033936493, 453950.0 ], [ 793350.0, 453950.0 ], [ 793350.0, 451950.0 ] ] ] ] } },
{ "type": "Feature", "properties": { "id": 34, "left": 792290.25403784437, "top": 451950.0, "right": 794599.65511460276, "bottom": 449950.0, "row_index": 3, "col_index": 5, "disturbance_count": 0, "fire_count": 30, "built_sum": 0.0, "disturbance_index": 0.11680229035501402 }, "geometry": { "type": "MultiPolygon", "coordinates": [ [ [ [ 793350.0, 449950.0 ], [ 792867.604307033936493, 449950.0 ], [ 792290.254037844366394, 450950.0 ], [ 792867.604307033936493, 451950.0 ], [ 793350.0, 451950.0 ], [ 793350.0, 449950.0 ] ] ] ] } },
{ "type": "Feature", "properties": { "id": 35, "left": 792290.25403784437, "top": 449950.0, "right": 794599.65511460276, "bottom": 447950.0, "row_index": 4, "col_index": 5, "disturbance_count": 0, "fire_count": 4, "built_sum": 0.0, "disturbance_index": 0.054742788240726703 }, "geometry": { "type": "MultiPolygon", "coordinates": [ [ [ [ 793350.0, 449660.0 ], [ 792700.172728969017044, 449660.0 ], [ 792867.604307033936493, 449950.0 ], [ 793350.0, 449950.0 ], [ 793350.0, 449660.0 ] ] ] ] } }
]
}
