{
    "type": "FeatureCollection",
    "crs": {
        "type": "name",
        "properties": {
            "name": "urn:ogc:def:crs:OGC:1.3:CRS84"
        }
    },
    "features": [
        {
            "type": "Feature",
            "geometry": {
                "type": "Polygon",
                "coordinates": [
                    [
                        [
                            105.242333660937362,
                            19.507097850516161
                        ],
                        [
                            105.398958693137274,
                            19.506820304912818
                        ],
                        [
                            105.399329222620267,
                            19.657230653184374
                        ],
                        [
                            105.242558730854924,
                            19.657510509569562
                        ],
                        [
                            105.242333660937362,
                            19.507097850516161
                        ]
                    ]
                ]
            }
        }
    ]
}